satname,norad_id,inclination_deg,eccentricity,mean_motion_rev_per_day,perigee_km,apogee_km,l1,l2
STARLINK-1143,45179,53.0474,0.0005231,15.58215289,389.28036752497155,396.3641450989253,1 45179U 20012B   26052.91668981  .00173596  00000+0  22137-2 0  9991,2 45179  53.0474  46.8143 0005231  27.8914 199.1093 15.58215289  5653
STARLINK-1202,45183,53.1609,0.0001421,15.30196141,474.25272875556493,476.2004546883327,1 45183U 20012F   26052.55575904  .00000333  00000+0  23359-4 0  9995,2 45183  53.1609 114.1924 0001421  92.3079 267.8084 15.30196141332483
STARLINK-1216,45185,53.1606,0.0001361,15.30201617,474.27750079349426,476.1429819125897,1 45185U 20012H   26052.54627073  .00001800  00000+0  72880-4 0  9994,2 45185  53.1606 114.2145 0001361  95.2843 264.8314 15.30201617332424
STARLINK-1225,45187,53.1596,0.0001409,15.30196999,474.2583913099252,476.1896684481453,1 45187U 20012K   26052.54318313  .00000327  00000+0  23166-4 0  9996,2 45187  53.1596 114.6700 0001409  83.1592 276.9569 15.30196999332461
STARLINK-1230,45189,53.1608,0.000137,15.30179255,474.3380932302998,476.2159286693013,1 45189U 20012M   26052.55268992 -.00002032  00000+0 -56550-4 0  9996,2 45189  53.1608 114.6859 0001370  89.6489 270.4669 15.30179255329692
STARLINK-1234,45190,53.0459,0.0004839,15.58354487,389.1427734503486,395.695317591204,1 45190U 20012N   26052.91668981  .00130649  00000+0  16679-2 0  9990,2 45190  53.0459  42.1701 0004839 283.6640 202.6817 15.58354487  5860
STARLINK-1269,45197,53.1604,0.0001365,15.30197888,474.28589205963453,476.15685889613906,1 45197U 20012V   26052.68011981 -.00000034  00000+0  10993-4 0  9993,2 45197  53.1604 113.9513 0001365  91.6152 268.5005 15.30197888332463
STARLINK-1154,45198,53.0488,0.0007365,15.43329637,431.2717034945972,441.30935524535926,1 45198U 20012W   26052.50957951  .00066470  00000+0  14638-2 0  9994,2 45198  53.0488  87.0206 0007365  20.2635 339.8661 15.43329637332792
STARLINK-1199,45201,53.1238,0.0001903,15.224613,497.1106439433479,499.7278612530872,1 45201U 20012Z   26052.91668981  .01403952  00000+0  54988-1 0  9998,2 45201  53.1238  96.9227 0001903  84.0597  47.2999 15.22461300  5837
STARLINK-1209,45206,53.048,0.000656,15.47870407,418.4954680097553,427.41850331894693,1 45206U 20012AE  26052.22612501  .00096290  00000+0  18053-2 0  9990,2 45206  53.0480  52.3731 0006560 241.3071 118.7277 15.47870407332368
STARLINK-1210,45207,53.0098,0.0004012,16.0600692,255.1577043675934,260.48239630478383,1 45207U 20012AF  26052.82400869  .00618226  19818-3  82714-3 0  9995,2 45207  53.0098 341.3808 0004012 139.5189 220.6141 16.06006920334359
STARLINK-1231,45212,53.0472,0.0003998,15.19606832,504.2752683230892,509.7806462229255,1 45212U 20012AL  26052.57359990  .00033931  00000+0  15810-2 0  9996,2 45212  53.0472  89.7124 0003998  17.8979 342.2155 15.19606832332773
STARLINK-1271,45217,53.1158,0.0001704,15.20748703,502.40834618222107,504.75363567352906,1 45217U 20012AR  26052.91668981  .01466936  00000+0  60162-1 0  9997,2 45217  53.1158  97.0369 0001704  89.4090  58.9824 15.20748703  5783
STARLINK-1191,45222,53.1599,0.000136,15.31035147,471.790887679992,473.6543214924395,1 45222U 20012AW  26052.47330623 -.00000339  00000+0  77443-6 0  9999,2 45222  53.1599  74.1689 0001360  90.8722 269.2435 15.31035147333035
STARLINK-1212,45223,53.052,0.0005262,15.45037082,427.686006705776,434.8522257024688,1 45223U 20012AX  26052.53716692  .00033468  00000+0  70336-3 0  9990,2 45223  53.0520  67.5828 0005262  49.0717 311.0744 15.45037082333130
STARLINK-1215,45225,53.1611,0.0001463,15.30198005,474.2183798569704,476.22367241541724,1 45225U 20012AZ  26052.32700349  .00000457  00000+0  27549-4 0  9992,2 45225  53.1611  74.3089 0001463  89.3315 270.7853 15.30198005332979
STARLINK-1221,45227,53.0669,0.0002686,15.41281553,440.49397674165357,444.15792944005443,1 45227U 20012BB  26052.83353198  .00016043  00000+0  38843-3 0  9992,2 45227  53.0669 344.7166 0002686  10.3849 349.7211 15.41281553334269
STARLINK-1222,45228,53.0559,0.0003634,15.48480149,418.7006307794263,423.64236819685357,1 45228U 20012BC  26052.49031673  .00023102  00000+0  43449-3 0  9998,2 45228  53.0559  60.4131 0003634  39.2515 320.8755 15.48480149333111
STARLINK-1226,45229,53.1598,0.0001239,15.31032994,471.88020491963016,473.57784952117527,1 45229U 20012BD  26052.48992074 -.00000080  00000+0  93020-5 0  9992,2 45229  53.1598  73.8940 0001239  92.6660 267.4483 15.31032994332931
STARLINK-1227,45230,53.1606,0.0001334,15.31040857,471.7916687063898,473.61947350436094,1 45230U 20012BE  26052.32174117  .00003513  00000+0  12743-3 0  9991,2 45230  53.1606  74.9898 0001334  82.6590 277.4563 15.31040857333022
STARLINK-1246,45235,53.1602,0.0001474,15.3020584,474.18745076264895,476.20781381224606,1 45235U 20012BK  26052.55891472  .00003883  00000+0  14315-3 0  9998,2 45235  53.1602 114.1728 0001474  97.5065 262.6103 15.30205840332501
STARLINK-1270,45237,53.0505,0.0004345,15.44094551,431.0799639729066,436.99974565974117,1 45237U 20012BM  26052.41527844  .00077715  00000+0  16649-2 0  9990,2 45237  53.0505  65.1186 0004345  13.2766 346.8353 15.44094551333154
STARLINK-1279,45360,53.0433,0.0003283,15.54117492,402.4923733916694,406.94599676279086,1 45360U 20019A   26052.63693383  .00089758  00000+0  13499-2 0  9990,2 45360  53.0433 176.3944 0003283 154.5762 205.5410 15.54117492328175
STARLINK-1301,45361,53.0453,0.0005985,15.60977613,380.78428319059276,388.8795569879385,1 45361U 20019B   26052.61201782  .00070442  00000+0  82257-3 0  9996,2 45361  53.0453 182.7654 0005985 157.0633 203.0648 15.60977613328096
STARLINK-1262,45366,53.0764,0.0002258,15.12005467,528.5248304547395,531.6445833775833,1 45366U 20019G   26052.91668981  .00077983  00000+0  44577-2 0  9991,2 45366  53.0764 237.3447 0002258  74.6209  53.1082 15.12005467  5832
STARLINK-1273,45367,53.0523,0.0002062,15.42557896,437.1575729410033,439.96878009379907,1 45367U 20019H   26052.73368133  .00053105  00000+0  12051-2 0  9990,2 45367  53.0523 230.6074 0002062 179.4581 180.6426 15.42557896327430
STARLINK-1276,45368,53.0553,0.0001291,15.06401453,546.3130427822107,548.1011666300465,1 45368U 20019J   26052.69507844  .00001211  00000+0  10019-3 0  9994,2 45368  53.0553 238.4204 0001291  95.9100 264.2036 15.06401453327328
STARLINK-1277,45369,53.052,4.17e-05,15.45880522,428.5082117141119,429.075909597771,1 45369U 20019K   26052.74032002  .00028124  00000+0  57627-3 0  9998,2 45369  53.0520 228.8350 0000417 100.9198 259.1855 15.45880522327469
STARLINK-1281,45370,53.0585,0.0002292,15.07085814,543.5236256150329,546.6972422387453,1 45370U 20019L   26052.81600718  .00088630  00000+0  57865-2 0  9994,2 45370  53.0585 237.8684 0002292 117.8844 242.2378 15.07085814327349
STARLINK-1300,45374,53.0549,0.0001339,15.06403486,546.2735711296464,548.1281766122702,1 45374U 20019Q   26052.70612472  .00001061  00000+0  90127-4 0  9999,2 45374  53.0549 238.3705 0001339  95.6757 264.4385 15.06403486327320
STARLINK-1302,45375,53.0531,0.0003188,15.47130163,422.95731204185904,427.29507265329994,1 45375U 20019R   26052.70739637  .00045116  00000+0  87853-3 0  9993,2 45375  53.0531 228.3589 0003188 191.4912 168.6023 15.47130163327466
STARLINK-1304,45376,53.0525,0.0003347,15.45329939,428.1299639115041,432.68760445943735,1 45376U 20019S   26052.68519233  .00075014  00000+0  15420-2 0  9999,2 45376  53.0525 225.9117 0003347 175.3761 184.7277 15.45329939327492
STARLINK-1305,45377,53.0469,0.0004573,15.4967099,414.5800475428505,420.7955088850049,1 45377U 20019T   26052.66822110  .00080068  00000+0  14143-2 0  9995,2 45377  53.0469 209.2936 0004573 116.5141 243.6336 15.49670990327733
STARLINK-1319,45379,53.0482,0.0003097,15.55761228,397.84156515740324,402.0399065069787,1 45379U 20019V   26052.72279352  .00102696  00000+0  14509-2 0  9996,2 45379  53.0482 207.5439 0003097 130.9870 229.1408 15.55761228327762
STARLINK-1266,45383,53.0505,0.0001169,15.43142979,436.0433612213237,437.63670285141416,1 45383U 20019Z   26052.91668981  .00070566  00000+0  15637-2 0  9995,2 45383  53.0505 207.9803 0001169 296.3367 346.0966 15.43142979  5920
STARLINK-1267,45384,53.0536,0.0005647,15.46795918,422.26387275268826,429.94858505541197,1 45384U 20019AA  26052.67488588  .00080192  00000+0  15654-2 0  9997,2 45384  53.0536 203.6390 0005647 182.7982 177.2994 15.46795918327804
STARLINK-1272,45386,53.0455,0.0003824,15.53014329,405.33588680323646,410.52587151721764,1 45386U 20019AC  26052.78977162  .00089789  00000+0  14054-2 0  9996,2 45386  53.0455 186.6225 0003824 142.2849 217.8429 15.53014329328051
STARLINK-1274,45387,53.0278,0.0006268,15.45088808,426.84909941537444,435.38518040516647,1 45387U 20019AD  26052.62399058  .00030475  00000+0  64023-3 0  9992,2 45387  53.0278 179.5814 0006268 179.3504 180.7510 15.45088808328136
STARLINK-1280,45388,53.0447,0.0003543,15.62319313,378.5646499005861,383.35414560803474,1 45388U 20019AE  26052.91668981  .00138651  00000+0  15196-2 0  9990,2 45388  53.0447 199.8068 0003543 130.4516 140.3839 15.62319313  5972
STARLINK-1283,45389,53.0452,0.0007304,15.52804427,403.5854174017695,413.4993986810359,1 45389U 20019AF  26052.91668981  .00093210  00000+0  14680-2 0  9999,2 45389  53.0452 186.2076 0007304 176.0074 250.0414 15.52804427  5952
STARLINK-1284,45390,53.0513,7.07e-05,15.48753596,419.89050020621744,420.8518092592958,1 45390U 20019AG  26052.68972331  .00078091  00000+0  14255-2 0  9990,2 45390  53.0513 207.7872 0000707 220.5339 139.5616 15.48753596327748
STARLINK-1297,45395,53.0498,7.4e-05,15.5082265,413.8202775107193,414.8255615788112,1 45395U 20019AM  26052.78786655  .00075539  00000+0  12826-2 0  9994,2 45395  53.0498 207.2842 0000740 281.7338  78.3587 15.50822650326941
STARLINK-1307,45397,53.0568,9.11e-05,15.48991637,419.0553499402931,420.2939112193835,1 45397U 20019AP  26052.68716252  .00023527  00000+0  43455-3 0  9994,2 45397  53.0568 207.4704 0000911  72.9107 287.2000 15.48991637327574
